{"type": "FeatureCollection", "features": [ {"type": "Feature", "properties": {"norad_id": 39122, "name": "EUTELSAT 117 WEST A", "group": "eutelsat", "lat": -0.02818058035057438, "lon": -53.27170016289325, "alt_km": 35776.73175257609, "timestamp": "2025-12-14T22:38:40.430762+00:00", "meta": {"OBJECT_NAME": "EUTELSAT 117 WEST A", "OBJECT_ID": "2013-012A", "EPOCH": "2025-12-14T06:00:55.004832", "MEAN_MOTION": 1.00272102, "ECCENTRICITY": 0.00028413, "INCLINATION": 0.0187, "RA_OF_ASC_NODE": 25.5641, "ARG_OF_PERICENTER": 241.4005, "MEAN_ANOMALY": 149.6297, "EPHEMERIS_TYPE": 0, "CLASSIFICATION_TYPE": "U", "NORAD_CAT_ID": 39122, "ELEMENT_SET_NO": 999, "REV_AT_EPOCH": 4657, "BSTAR": 0, "MEAN_MOTION_DOT": 5e-08, "MEAN_MOTION_DDOT": 0}, "tle": {"line1": "1 39122U 13012A   25348.25063663  .00000005  00000+0  00000+0 0  9990", "line2": "2 39122   0.0187  25.5641 0002841 241.4005 149.6297  1.00272102 46574"}}, "geometry": {"type": "Point", "coordinates": [-53.27170016289325, -0.02818058035057438]}}, {"type": "Feature", "properties": {"norad_id": 39163, "name": "EUTELSAT 7B", "group": "eutelsat", "lat": 0.07492231711402544, "lon": 70.57249571238705, "alt_km": 35792.666980807844, "timestamp": "2025-12-14T22:38:40.430774+00:00", "meta": {"OBJECT_NAME": "EUTELSAT 7B", "OBJECT_ID": "2013-022A", "EPOCH": "2025-12-14T06:36:14.123808", "MEAN_MOTION": 1.00273653, "ECCENTRICITY": 0.00046628, "INCLINATION": 0.0757, "RA_OF_ASC_NODE": 23.8989, "ARG_OF_PERICENTER": 295.398, "MEAN_ANOMALY": 229.963, "EPHEMERIS_TYPE": 0, "CLASSIFICATION_TYPE": "U", "NORAD_CAT_ID": 39163, "ELEMENT_SET_NO": 999, "REV_AT_EPOCH": 4610, "BSTAR": 0, "MEAN_MOTION_DOT": 6.6e-07, "MEAN_MOTION_DDOT": 0}, "tle": {"line1": "1 39163U 13022A   25348.27516347  .00000066  00000+0  00000+0 0  9997", "line2": "2 39163   0.0757  23.8989 0004662 295.3980 229.9630  1.00273653 46105"}}, "geometry": {"type": "Point", "coordinates": [70.57249571238705, 0.07492231711402544]}}, {"type": "Feature", "properties": {"norad_id": 39612, "name": "EXPRESS-AT1", "group": "eutelsat", "lat": 0.027057323952977018, "lon": 119.50816599002967, "alt_km": 35784.24266555135, "timestamp": "2025-12-14T22:38:40.430786+00:00", "meta": {"OBJECT_NAME": "EXPRESS-AT1", "OBJECT_ID": "2014-010A", "EPOCH": "2025-12-14T10:15:41.842368", "MEAN_MOTION": 1.00273481, "ECCENTRICITY": 3.13e-05, "INCLINATION": 0.0196, "RA_OF_ASC_NODE": 344.8805, "ARG_OF_PERICENTER": 139.4475, "MEAN_ANOMALY": 168.9347, "EPHEMERIS_TYPE": 0, "CLASSIFICATION_TYPE": "U", "NORAD_CAT_ID": 39612, "ELEMENT_SET_NO": 999, "REV_AT_EPOCH": 4296, "BSTAR": 0, "MEAN_MOTION_DOT": 0, "MEAN_MOTION_DDOT": 0}, "tle": {"line1": "1 39612U 14010A   25348.42756762  .00000000  00000+0  00000+0 0  9996", "line2": "2 39612   0.0196 344.8805 0000313 139.4475 168.9347  1.00273481 42966"}}, "geometry": {"type": "Point", "coordinates": [119.50816599002967, 0.027057323952977018]}}, {"type": "Feature", "properties": {"norad_id": 39613, "name": "EXPRESS-AT2", "group": "eutelsat", "lat": -0.03156693371712025, "lon": -156.65676597776093, "alt_km": 35787.04227321651, "timestamp": "2025-12-14T22:38:40.430799+00:00", "meta": {"OBJECT_NAME": "EXPRESS-AT2", "OBJECT_ID": "2014-010B", "EPOCH": "2025-12-14T03:48:30.188736", "MEAN_MOTION": 1.0027039, "ECCENTRICITY": 0.00013149, "INCLINATION": 0.0172, "RA_OF_ASC_NODE": 322.2953, "ARG_OF_PERICENTER": 336.2358, "MEAN_ANOMALY": 341.5254, "EPHEMERIS_TYPE": 0, "CLASSIFICATION_TYPE": "U", "NORAD_CAT_ID": 39613, "ELEMENT_SET_NO": 999, "REV_AT_EPOCH": 4264, "BSTAR": 0, "MEAN_MOTION_DOT": -2.64e-06, "MEAN_MOTION_DDOT": 0}, "tle": {"line1": "1 39613U 14010B   25348.15868274 -.00000264  00000+0  00000+0 0  9992", "line2": "2 39613   0.0172 322.2953 0001314 336.2358 341.5254  1.00270390 42641"}}, "geometry": {"type": "Point", "coordinates": [-156.65676597776093, -0.03156693371712025]}}, {"type": "Feature", "properties": {"norad_id": 39773, "name": "EUTELSAT 3B", "group": "eutelsat", "lat": 0.07954686848534089, "lon": 66.58942890285388, "alt_km": 35804.27512918299, "timestamp": "2025-12-14T22:38:40.430811+00:00", "meta": {"OBJECT_NAME": "EUTELSAT 3B", "OBJECT_ID": "2014-030A", "EPOCH": "2025-12-14T06:35:06.730944", "MEAN_MOTION": 1.00271121, "ECCENTRICITY": 0.00044298, "INCLINATION": 0.0607, "RA_OF_ASC_NODE": 352.6855, "ARG_OF_PERICENTER": 238.285, "MEAN_ANOMALY": 314.0942, "EPHEMERIS_TYPE": 0, "CLASSIFICATION_TYPE": "U", "NORAD_CAT_ID": 39773, "ELEMENT_SET_NO": 999, "REV_AT_EPOCH": 4221, "BSTAR": 0, "MEAN_MOTION_DOT": 3.8e-07, "MEAN_MOTION_DDOT": 0}, "tle": {"line1": "1 39773U 14030A   25348.27438346  .00000038  00000+0  00000+0 0  9995", "line2": "2 39773   0.0607 352.6855 0004429 238.2850 314.0942  1.00271121 42212"}}, "geometry": {"type": "Point", "coordinates": [66.58942890285388, 0.07954686848534089]}}, {"type": "Feature", "properties": {"norad_id": 40425, "name": "EUTELSAT 115 WEST B", "group": "eutelsat", "lat": 0.014161294666729626, "lon": -51.382238904246975, "alt_km": 35786.38707699023, "timestamp": "2025-12-14T22:38:40.430822+00:00", "meta": {"OBJECT_NAME": "EUTELSAT 115 WEST B", "OBJECT_ID": "2015-010B", "EPOCH": "2025-12-14T06:01:24.957984", "MEAN_MOTION": 1.00269913, "ECCENTRICITY": 6.55e-06, "INCLINATION": 0.0421, "RA_OF_ASC_NODE": 164.9612, "ARG_OF_PERICENTER": 99.1168, "MEAN_ANOMALY": 154.5568, "EPHEMERIS_TYPE": 0, "CLASSIFICATION_TYPE": "U", "NORAD_CAT_ID": 40425, "ELEMENT_SET_NO": 999, "REV_AT_EPOCH": 3953, "BSTAR": 0, "MEAN_MOTION_DOT": -7e-08, "MEAN_MOTION_DDOT": 0}, "tle": {"line1": "1 40425U 15010B   25348.25098331 -.00000007  00000+0  00000+0 0  9991", "line2": "2 40425   0.0421 164.9612 0000065  99.1168 154.5568  1.00269913 39533"}}, "geometry": {"type": "Point", "coordinates": [-51.382238904246975, 0.014161294666729626]}}, {"type": "Feature", "properties": {"norad_id": 40875, "name": "EUTELSAT 8 WEST B", "group": "eutelsat", "lat": 0.0662366990866293, "lon": 55.55003704504093, "alt_km": 35801.908028713966, "timestamp": "2025-12-14T22:38:40.430833+00:00", "meta": {"OBJECT_NAME": "EUTELSAT 8 WEST B", "OBJECT_ID": "2015-039B", "EPOCH": "2025-12-14T06:31:52.042368", "MEAN_MOTION": 1.00271739, "ECCENTRICITY": 0.00042442, "INCLINATION": 0.0667, "RA_OF_ASC_NODE": 11.477, "ARG_OF_PERICENTER": 252.389, "MEAN_ANOMALY": 269.3077, "EPHEMERIS_TYPE": 0, "CLASSIFICATION_TYPE": "U", "NORAD_CAT_ID": 40875, "ELEMENT_SET_NO": 999, "REV_AT_EPOCH": 3780, "BSTAR": 0, "MEAN_MOTION_DOT": -4.8e-07, "MEAN_MOTION_DDOT": 0}, "tle": {"line1": "1 40875U 15039B   25348.27213012 -.00000048  00000+0  00000+0 0  9993", "line2": "2 40875   0.0667  11.4770 0004244 252.3890 269.3077  1.00271739 37800"}}, "geometry": {"type": "Point", "coordinates": [55.55003704504093, 0.0662366990866293]}}, {"type": "Feature", "properties": {"norad_id": 41310, "name": "EUTELSAT 9B", "group": "eutelsat", "lat": 0.024986684883783424, "lon": 72.52295189559261, "alt_km": 35804.66512247917, "timestamp": "2025-12-14T22:38:40.430845+00:00", "meta": {"OBJECT_NAME": "EUTELSAT 9B", "OBJECT_ID": "2016-005A", "EPOCH": "2025-12-14T06:36:44.076096", "MEAN_MOTION": 1.00270697, "ECCENTRICITY": 0.00045783, "INCLINATION": 0.0487, "RA_OF_ASC_NODE": 66.6131, "ARG_OF_PERICENTER": 204.9035, "MEAN_ANOMALY": 279.8585, "EPHEMERIS_TYPE": 0, "CLASSIFICATION_TYPE": "U", "NORAD_CAT_ID": 41310, "ELEMENT_SET_NO": 999, "REV_AT_EPOCH": 3626, "BSTAR": 0, "MEAN_MOTION_DOT": 7.9e-07, "MEAN_MOTION_DDOT": 0}, "tle": {"line1": "1 41310U 16005A   25348.27551014  .00000079  00000+0  00000+0 0  9992", "line2": "2 41310   0.0487  66.6131 0004578 204.9035 279.8585  1.00270697 36263"}}, "geometry": {"type": "Point", "coordinates": [72.52295189559261, 0.024986684883783424]}}, {"type": "Feature", "properties": {"norad_id": 41382, "name": "EUTELSAT 65 WEST A", "group": "eutelsat", "lat": -0.011423863317451734, "lon": -1.6587765379740818, "alt_km": 35785.635933628066, "timestamp": "2025-12-14T22:38:40.430860+00:00", "meta": {"OBJECT_NAME": "EUTELSAT 65 WEST A", "OBJECT_ID": "2016-014A", "EPOCH": "2025-12-14T06:15:38.595168", "MEAN_MOTION": 1.00271529, "ECCENTRICITY": 0.00024327, "INCLINATION": 0.0532, "RA_OF_ASC_NODE": 18.0834, "ARG_OF_PERICENTER": 253.6645, "MEAN_ANOMALY": 200.1459, "EPHEMERIS_TYPE": 0, "CLASSIFICATION_TYPE": "U", "NORAD_CAT_ID": 41382, "ELEMENT_SET_NO": 999, "REV_AT_EPOCH": 3568, "BSTAR": 0, "MEAN_MOTION_DOT": -2.59e-06, "MEAN_MOTION_DDOT": 0}, "tle": {"line1": "1 41382U 16014A   25348.26086337 -.00000259  00000+0  00000+0 0  9992", "line2": "2 41382   0.0532  18.0834 0002432 253.6645 200.1459  1.00271529 35686"}}, "geometry": {"type": "Point", "coordinates": [-1.6587765379740818, -0.011423863317451734]}}, {"type": "Feature", "properties": {"norad_id": 41589, "name": "EUTELSAT 117 WEST B", "group": "eutelsat", "lat": 0.004959956870179834, "lon": -53.47552990054649, "alt_km": 35786.599053970574, "timestamp": "2025-12-14T22:38:40.430884+00:00", "meta": {"OBJECT_NAME": "EUTELSAT 117 WEST B", "OBJECT_ID": "2016-038B", "EPOCH": "2025-12-14T06:02:39.838272", "MEAN_MOTION": 1.0027082, "ECCENTRICITY": 6.6e-06, "INCLINATION": 0.0106, "RA_OF_ASC_NODE": 154.7205, "ARG_OF_PERICENTER": 341.1575, "MEAN_ANOMALY": 280.9745, "EPHEMERIS_TYPE": 0, "CLASSIFICATION_TYPE": "U", "NORAD_CAT_ID": 41589, "ELEMENT_SET_NO": 999, "REV_AT_EPOCH": 3480, "BSTAR": 0, "MEAN_MOTION_DOT": 6e-08, "MEAN_MOTION_DDOT": 0}, "tle": {"line1": "1 41589U 16038B   25348.25184998  .00000006  00000+0  00000+0 0  9997", "line2": "2 41589   0.0106 154.7205 0000066 341.1575 280.9745  1.00270820 34808"}}, "geometry": {"type": "Point", "coordinates": [-53.47552990054649, 0.004959956870179834]}}]}